{
  "type": "FeatureCollection",
  "features": [
    {
      "type": "Feature",
      "properties": {
        "norad_id": 38857,
        "name": "GSAT0103 (GALILEO-FM3)",
        "group": "gnss",
        "lat": 33.43566291515242,
        "lon": -100.43081812745562,
        "alt_km": 23224.082894407096,
        "timestamp": "2025-12-25T11:37:44.677903+00:00",
        "meta_object_name": "GSAT0103 (GALILEO-FM3)",
        "meta_object_id": "2012-055A",
        "meta_epoch": "2025-12-22T21:54:43.252704",
        "meta_mean_motion": 1.70473351,
        "meta_eccentricity": 0.0002995,
        "meta_inclination": 55.698,
        "meta_ra_of_asc_node": 106.3873,
        "meta_arg_of_pericenter": 269.858,
        "meta_mean_anomaly": 90.0891,
        "meta_ephemeris_type": 0,
        "meta_classification_type": "U",
        "meta_norad_cat_id": 38857,
        "meta_element_set_no": 999,
        "meta_rev_at_epoch": 8200,
        "meta_bstar": 0,
        "meta_mean_motion_dot": 1e-07,
        "meta_mean_motion_ddot": 0,
        "tle_line1": "1 38857U 12055A   25356.91300061  .00000010  00000+0  00000+0 0  9994",
        "tle_line2": "2 38857  55.6980 106.3873 0002995 269.8580  90.0891  1.70473351 82005"
      },
      "geometry": {
        "type": "Point",
        "coordinates": [
          -100.43081812745562,
          33.43566291515242
        ]
      }
    },
    {
      "type": "Feature",
      "properties": {
        "norad_id": 38953,
        "name": "BEIDOU-2 G6 (C02)",
        "group": "gnss",
        "lat": -3.9578931734638214,
        "lon": -7.397988360020249,
        "alt_km": 35753.866485532984,
        "timestamp": "2025-12-25T11:37:44.677917+00:00",
        "meta_object_name": "BEIDOU-2 G6 (C02)",
        "meta_object_id": "2012-059A",
        "meta_epoch": "2025-12-25T01:00:51.717600",
        "meta_mean_motion": 1.00274262,
        "meta_eccentricity": 0.0007997,
        "meta_inclination": 3.9787,
        "meta_ra_of_asc_node": 75.3898,
        "meta_arg_of_pericenter": 294.4199,
        "meta_mean_anomaly": 183.1448,
        "meta_ephemeris_type": 0,
        "meta_classification_type": "U",
        "meta_norad_cat_id": 38953,
        "meta_element_set_no": 999,
        "meta_rev_at_epoch": 4816,
        "meta_bstar": 0,
        "meta_mean_motion_dot": -1.55e-06,
        "meta_mean_motion_ddot": 0,
        "tle_line1": "1 38953U 12059A   25359.04226525 -.00000155  00000+0  00000+0 0  9995",
        "tle_line2": "2 38953   3.9787  75.3898 0007997 294.4199 183.1448  1.00274262 48166"
      },
      "geometry": {
        "type": "Point",
        "coordinates": [
          -7.397988360020249,
          -3.9578931734638214
        ]
      }
    },
    {
      "type": "Feature",
      "properties": {
        "norad_id": 38977,
        "name": "LUCH 5B (SDCM/PRN 125)",
        "group": "gnss",
        "lat": -3.5772539947113735,
        "lon": -107.93907577593461,
        "alt_km": 35758.70572216311,
        "timestamp": "2025-12-25T11:37:44.677930+00:00",
        "meta_object_name": "LUCH 5B (SDCM/PRN 125)",
        "meta_object_id": "2012-061A",
        "meta_epoch": "2025-12-24T23:17:34.998144",
        "meta_mean_motion": 1.00271775,
        "meta_eccentricity": 0.000662,
        "meta_inclination": 10.1058,
        "meta_ra_of_asc_node": 51.5875,
        "meta_arg_of_pericenter": 196.0598,
        "meta_mean_anomaly": 179.1583,
        "meta_ephemeris_type": 0,
        "meta_classification_type": "U",
        "meta_norad_cat_id": 38977,
        "meta_element_set_no": 999,
        "meta_rev_at_epoch": 4786,
        "meta_bstar": 0,
        "meta_mean_motion_dot": -1.21e-06,
        "meta_mean_motion_ddot": 0,
        "tle_line1": "1 38977U 12061A   25358.97054396 -.00000121  00000+0  00000+0 0  9993",
        "tle_line2": "2 38977  10.1058  51.5875 0006620 196.0598 179.1583  1.00271775 47863"
      },
      "geometry": {
        "type": "Point",
        "coordinates": [
          -107.93907577593461,
          -3.5772539947113735
        ]
      }
    },
    {
      "type": "Feature",
      "properties": {
        "norad_id": 39155,
        "name": "COSMOS 2485 (747)",
        "group": "gnss",
        "lat": 24.182966461943238,
        "lon": -112.44772102736205,
        "alt_km": 19112.93447935342,
        "timestamp": "2025-12-25T11:37:44.677942+00:00",
        "meta_object_name": "COSMOS 2485 (747)",
        "meta_object_id": "2013-019A",
        "meta_epoch": "2025-12-23T21:02:08.431872",
        "meta_mean_motion": 2.13103241,
        "meta_eccentricity": 0.00249991,
        "meta_inclination": 65.319,
        "meta_ra_of_asc_node": 79.4929,
        "meta_arg_of_pericenter": 230.4814,
        "meta_mean_anomaly": 129.3448,
        "meta_ephemeris_type": 0,
        "meta_classification_type": "U",
        "meta_norad_cat_id": 39155,
        "meta_element_set_no": 999,
        "meta_rev_at_epoch": 9854,
        "meta_bstar": 0,
        "meta_mean_motion_dot": 2e-08,
        "meta_mean_motion_ddot": 0,
        "tle_line1": "1 39155U 13019A   25357.87648648  .00000002  00000+0  00000+0 0  9990",
        "tle_line2": "2 39155  65.3190  79.4929 0024999 230.4814 129.3448  2.13103241 98548"
      },
      "geometry": {
        "type": "Point",
        "coordinates": [
          -112.44772102736205,
          24.182966461943238
        ]
      }
    },
    {
      "type": "Feature",
      "properties": {
        "norad_id": 39166,
        "name": "GPS BIIF-4  (PRN 27)",
        "group": "gnss",
        "lat": -32.792887743621094,
        "lon": 123.23147462911312,
        "alt_km": 20551.18074133707,
        "timestamp": "2025-12-25T11:37:44.677956+00:00",
        "meta_object_name": "GPS BIIF-4  (PRN 27)",
        "meta_object_id": "2013-023A",
        "meta_epoch": "2025-12-24T04:22:45.402816",
        "meta_mean_motion": 2.00564584,
        "meta_eccentricity": 0.01386043,
        "meta_inclination": 54.6422,
        "meta_ra_of_asc_node": 276.1031,
        "meta_arg_of_pericenter": 48.7593,
        "meta_mean_anomaly": 312.474,
        "meta_ephemeris_type": 0,
        "meta_classification_type": "U",
        "meta_norad_cat_id": 39166,
        "meta_element_set_no": 999,
        "meta_rev_at_epoch": 9237,
        "meta_bstar": 0,
        "meta_mean_motion_dot": -1.6e-07,
        "meta_mean_motion_ddot": 0,
        "tle_line1": "1 39166U 13023A   25358.18246994 -.00000016  00000+0  00000+0 0  9996",
        "tle_line2": "2 39166  54.6422 276.1031 0138604  48.7593 312.4740  2.00564584 92374"
      },
      "geometry": {
        "type": "Point",
        "coordinates": [
          123.23147462911312,
          -32.792887743621094
        ]
      }
    },
    {
      "type": "Feature",
      "properties": {
        "norad_id": 39199,
        "name": "IRNSS-1A",
        "group": "gnss",
        "lat": -34.373304958869035,
        "lon": -39.05539835185698,
        "alt_km": 35717.962594040255,
        "timestamp": "2025-12-25T11:37:44.677968+00:00",
        "meta_object_name": "IRNSS-1A",
        "meta_object_id": "2013-034A",
        "meta_epoch": "2025-12-24T18:29:47.559840",
        "meta_mean_motion": 1.00273605,
        "meta_eccentricity": 0.00238143,
        "meta_inclination": 35.3368,
        "meta_ra_of_asc_node": 66.3779,
        "meta_arg_of_pericenter": 212.7296,
        "meta_mean_anomaly": 146.6998,
        "meta_ephemeris_type": 0,
        "meta_classification_type": "U",
        "meta_norad_cat_id": 39199,
        "meta_element_set_no": 999,
        "meta_rev_at_epoch": 4561,
        "meta_bstar": 0,
        "meta_mean_motion_dot": 7.9e-07,
        "meta_mean_motion_ddot": 0,
        "tle_line1": "1 39199U 13034A   25358.77068935  .00000079  00000+0  00000+0 0  9994",
        "tle_line2": "2 39199  35.3368  66.3779 0023814 212.7296 146.6998  1.00273605 45619"
      },
      "geometry": {
        "type": "Point",
        "coordinates": [
          -39.05539835185698,
          -34.373304958869035
        ]
      }
    },
    {
      "type": "Feature",
      "properties": {
        "norad_id": 39533,
        "name": "GPS BIIF-5  (PRN 30)",
        "group": "gnss",
        "lat": -33.72922837187381,
        "lon": 5.912640968252643,
        "alt_km": 19976.698622622036,
        "timestamp": "2025-12-25T11:37:44.677979+00:00",
        "meta_object_name": "GPS BIIF-5  (PRN 30)",
        "meta_object_id": "2014-008A",
        "meta_epoch": "2025-12-23T16:16:25.020768",
        "meta_mean_motion": 2.00548852,
        "meta_eccentricity": 0.00795532,
        "meta_inclination": 53.5993,
        "meta_ra_of_asc_node": 156.4877,
        "meta_arg_of_pericenter": 225.9161,
        "meta_mean_anomaly": 133.4108,
        "meta_ephemeris_type": 0,
        "meta_classification_type": "U",
        "meta_norad_cat_id": 39533,
        "meta_element_set_no": 999,
        "meta_rev_at_epoch": 8616,
        "meta_bstar": 0,
        "meta_mean_motion_dot": 8.2e-07,
        "meta_mean_motion_ddot": 0,
        "tle_line1": "1 39533U 14008A   25357.67806737  .00000082  00000+0  00000+0 0  9990",
        "tle_line2": "2 39533  53.5993 156.4877 0079553 225.9161 133.4108  2.00548852 86167"
      },
      "geometry": {
        "type": "Point",
        "coordinates": [
          5.912640968252643,
          -33.72922837187381
        ]
      }
    }
  ]
}